<?xml version="1.0" encoding="UTF-8"?>
<kml xmlns="http://www.opengis.net/kml/2.2">
  <Document>
    <name>Red Dorsal de Fibra Óptica</name>

    <!-- Nodos en Lima -->
    <Placemark>
      <name>Nodo Lima 1</name>
      <Point>
        <coordinates>-76.92003,-12.01971</coordinates>
      </Point>
    </Placemark>

    <Placemark>
      <name>Nodo Lima 2</name>
      <Point>
        <coordinates>-77.06516,-12.08145</coordinates>
      </Point>
    </Placemark>

    <Placemark>
      <name>Nodo Lima 3</name>
      <Point>
        <coordinates>-77.11564,-12.00736</coordinates>
      </Point>
    </Placemark>

    <Placemark>
      <name>Nodo Lima 4</name>
      <Point>
        <coordinates>-77.19136,-11.5129</coordinates>
      </Point>
    </Placemark>

    <Placemark>
      <name>Nodo Lima 5</name>
      <Point>
        <coordinates>-76.61715,-11.49434</coordinates>
      </Point>
    </Placemark>

    <Placemark>
      <name>Nodo Lima 6</name>
      <Point>
        <coordinates>-76.40892,-11.88383</coordinates>
      </Point>
    </Placemark>

    <Placemark>
      <name>Nodo Lima 7</name>
      <Point>
        <coordinates>-75.93283,-12.48074</coordinates>
      </Point>
    </Placemark>

    <Placemark>
      <name>Nodo Lima 8</name>
      <Point>
        <coordinates>-76.37242,-13.13394</coordinates>
      </Point>
    </Placemark>

    <Placemark>
      <name>Nodo Lima 9</name>
      <Point>
        <coordinates>-77.58226,-11.13596</coordinates>
      </Point>
    </Placemark>

    <Placemark>
      <name>Nodo Lima 10</name>
      <Point>
        <coordinates>-76.99884,-10.48741</coordinates>
      </Point>
    </Placemark>

    <Placemark>
      <name>Nodo Lima 11</name>
      <Point>
        <coordinates>-76.77408,-10.68494</coordinates>
      </Point>
    </Placemark>

    <Placemark>
      <name>Nodo Lima 12</name>
      <Point>
        <coordinates>-76.9845,-10.50152</coordinates>
      </Point>
    </Placemark>

    <Placemark>
      <name>Nodo Lima 13</name>
      <Point>
        <coordinates>-77.75441,-10.78366</coordinates>
      </Point>
    </Placemark>

    <Placemark>
      <name>Nodo Lima 14</name>
      <Point>
        <coordinates>-77.76397,-10.69905</coordinates>
      </Point>
    </Placemark>

    <!-- Nodos en Ica -->
    <Placemark>
      <name>Nodo Ica 1</name>
      <Point>
        <coordinates>-76.12895,-13.43898</coordinates>
      </Point>
    </Placemark>

    <Placemark>
      <name>Nodo Ica 2</name>
      <Point>
        <coordinates>-75.96664,-13.72509</coordinates>
      </Point>
    </Placemark>

    <Placemark>
      <name>Nodo Ica 3</name>
      <Point>
        <coordinates>-76.21349,-13.72509</coordinates>
      </Point>
    </Placemark>

    <Placemark>
      <name>Nodo Ica 4</name>
      <Point>
        <coordinates>-75.73671,-13.9813</coordinates>
      </Point>
    </Placemark>

    <Placemark>
      <name>Nodo Ica 5</name>
      <Point>
        <coordinates>-75.72656,-14.06992</coordinates>
      </Point>
    </Placemark>

    <Placemark>
      <name>Nodo Ica 6</name>
      <Point>
        <coordinates>-75.18891,-14.54854</coordinates>
      </Point>
    </Placemark>

    <!-- Nodos en Arequipa -->
    <Placemark>
      <name>Nodo Arequipa 1</name>
      <Point>
        <coordinates>-73.36691,-15.7984</coordinates>
      </Point>
    </Placemark>

    <Placemark>
      <name>Nodo Arequipa 2</name>
      <Point>
        <coordinates>-72.65159,-15.84868</coordinates>
      </Point>
    </Placemark>

    <Placemark>
      <name>Nodo Arequipa 3</name>
      <Point>
        <coordinates>-72.48674,-16.09502</coordinates>
      </Point>
    </Placemark>

    <Placemark>
      <name>Nodo Arequipa 4</name>
      <Point>
        <coordinates>-72.70458,-16.63171</coordinates>
      </Point>
    </Placemark>


  <Placemark>
      <name>Nodo Huancavelica 1</name>
      <Point>
        <coordinates>-75.0056,-12.77576</coordinates>
      </Point>
    </Placemark>

    <Placemark>
      <name>Nodo Huancavelica 2</name>
      <Point>
        <coordinates>-74.9745,-12.78976</coordinates>
      </Point>
    </Placemark>

    <Placemark>
      <name>Nodo Huancavelica 3</name>
      <Point>
        <coordinates>-74.95297,-12.57384</coordinates>
      </Point>
    </Placemark>

    <Placemark>
      <name>Nodo Huancavelica 4</name>
      <Point>
        <coordinates>-74.72419,-13.01383</coordinates>
      </Point>
    </Placemark>

    <Placemark>
      <name>Nodo Huancavelica 5</name>
      <Point>
        <coordinates>-74.56632,-12.85293</coordinates>
      </Point>
    </Placemark>

    <Placemark>
      <name>Nodo Huancavelica 6</name>
      <Point>
        <coordinates>-74.94664,-12.57053</coordinates>
      </Point>
    </Placemark>

    <Placemark>
      <name>Nodo Huancavelica 7</name>
      <Point>
        <coordinates>-74.86292,-12.49345</coordinates>
      </Point>
    </Placemark>

    <Placemark>
      <name>Nodo Huancavelica 8</name>
      <Point>
        <coordinates>-74.86292,-12.40935</coordinates>
      </Point>
    </Placemark>

    <Placemark>
      <name>Nodo Huancavelica 9</name>
      <Point>
        <coordinates>-75.08299,-12.2995</coordinates>
      </Point>
    </Placemark>

    <Placemark>
      <name>Nodo Huancavelica 10</name>
      <Point>
        <coordinates>-75.92272,-12.33456</coordinates>
      </Point>
    </Placemark>

    <Placemark>
      <name>Nodo Huancavelica 11</name>
      <Point>
        <coordinates>-74.86053,-12.3556</coordinates>
      </Point>
    </Placemark>

    <Placemark>
      <name>Nodo Huancavelica 12</name>
      <Point>
        <coordinates>-74.79116,-12.3743</coordinates>
      </Point>
    </Placemark>

    <Placemark>
      <name>Nodo Huancavelica 13</name>
      <Point>
        <coordinates>-74.64525,-12.43739</coordinates>
      </Point>
    </Placemark>

    <Placemark>
      <name>Nodo Huancavelica 14</name>
      <Point>
        <coordinates>-74.4782,-12.61676</coordinates>
      </Point>
    </Placemark>

    <Placemark>
      <name>Nodo Huancavelica 15</name>
      <Point>
        <coordinates>-74.41135,-12.71468</coordinates>
      </Point>
    </Placemark>

    <Placemark>
      <name>Nodo Huancavelica 16</name>
      <Point>
        <coordinates>-74.39202,-12.73283</coordinates>
      </Point>
    </Placemark>

    <Placemark>
      <name>Nodo Huancavelica 17</name>
      <Point>
        <coordinates>-74.35781,-12.79031</coordinates>
      </Point>
    </Placemark>

    <Placemark>
      <name>Nodo Ayacucho 1</name>
      <Point>
        <coordinates>-74.24892,-12.94322</coordinates>
      </Point>
    </Placemark>

    <Placemark>
      <name>Nodo Ayacucho 2</name>
      <Point>
        <coordinates>-74.21657,-13.06273</coordinates>
      </Point>
    </Placemark>

    <Placemark>
      <name>Nodo Ayacucho 3</name>
      <Point>
        <coordinates>-74.22438,-13.17893</coordinates>
      </Point>
    </Placemark>

    <Placemark>
      <name>Nodo Ayacucho 4</name>
      <Point>
        <coordinates>-74.11952,-13.23321</coordinates>
      </Point>
    </Placemark>

    <Placemark>
      <name>Nodo Ayacucho 5</name>
      <Point>
        <coordinates>-73.97898,-13.01602</coordinates>
      </Point>
    </Placemark>

    <Placemark>
      <name>Nodo Ayacucho 6</name>
      <Point>
        <coordinates>-74.14521,-13.63184</coordinates>
      </Point>
    </Placemark>

    <Placemark>
      <name>Nodo Ayacucho 7</name>
      <Point>
        <coordinates>-74.0655,-13.75748</coordinates>
      </Point>
    </Placemark>

    <Placemark>
      <name>Nodo Ayacucho 8</name>
      <Point>
        <coordinates>-73.9496,-13.66019</coordinates>
      </Point>
    </Placemark>

    <!--NUEVO-->

    <Placemark>
    <name>Nodo Huancayo 1</name>
    <Point>
      <coordinates>-75.2049,-12.0651</coordinates>
    </Point>
  </Placemark>


  <Placemark>
    <name>Nodo Huancayo 2</name>
    <Point>
      <coordinates>-75.3000,-12.2000</coordinates>
    </Point>
  </Placemark>

  <Placemark>
    <name>Nodo Huancayo 3</name>
    <Point>
      <coordinates>-75.1000,-11.9000</coordinates>
    </Point>
  </Placemark>


  <Placemark>
  <name>Nodo Apurímac 1</name>
  <Point>
    <coordinates>-72.8806,-13.6339</coordinates>
  </Point>
</Placemark>

<Placemark>
  <name>Nodo Apurímac 2</name>
  <Point>
    <coordinates>-73.3878,-13.6556</coordinates>
  </Point>
</Placemark>

<Placemark>
  <name>Nodo Apurímac 3</name>
  <Point>
    <coordinates>-73.1664,-14.2697</coordinates>
  </Point>
</Placemark>

<Placemark>
  <name>Nodo Apurímac 4</name>
  <Point>
    <coordinates>-72.3133,-13.6236</coordinates>
  </Point>
</Placemark>

<Placemark>
  <name>Nodo Apurímac 5</name>
  <Point>
    <coordinates>-72.5383,-14.3422</coordinates>
  </Point>
</Placemark>

<Placemark>
  <name>Nodo Cuzco 1</name>
  <Point>
    <coordinates>-71.96734,-13.52264</coordinates>
  </Point>
</Placemark>

<Placemark>
  <name>Nodo Cuzco 2</name>
  <Point>
    <coordinates>-71.8000,-13.2000</coordinates>
  </Point>
</Placemark>

<Placemark>
  <name>Nodo Cuzco 3</name>
  <Point>
    <coordinates>-72.1000,-13.8000</coordinates>
  </Point>
</Placemark>

<Placemark>
  <name>Nodo Cuzco 4</name>
  <Point>
    <coordinates>-71.6000,-13.5000</coordinates>
  </Point>
</Placemark>

<Placemark>
  <name>Nodo Cuzco 5</name>
  <Point>
    <coordinates>-72.2000,-13.6000</coordinates>
  </Point>
</Placemark>

<Placemark>
  <name>Nodo Puno 1</name>
  <Point>
    <coordinates>-70.0219,-15.8402</coordinates>
  </Point>
</Placemark>


<Placemark>
  <name>Nodo Puno 2</name>
  <Point>
    <coordinates>-69.9000,-15.5000</coordinates>
  </Point>
</Placemark>

<Placemark>
  <name>Nodo Puno 3</name>
  <Point>
    <coordinates>-70.2000,-16.2000</coordinates>
  </Point>
</Placemark>

<Placemark>
  <name>Nodo Puno 4</name>
  <Point>
    <coordinates>-69.8000,-15.8000</coordinates>
  </Point>
</Placemark>

<Placemark>
  <name>Nodo Puno 5</name>
  <Point>
    <coordinates>-70.3000,-15.9000</coordinates>
  </Point>
</Placemark>
<Placemark>
  <name>Nodo Moquegua 1</name>
  <Point>
    <coordinates>-70.9357,-17.1941</coordinates>
  </Point>
</Placemark>
<Placemark>
  <name>Nodo Moquegua 2</name>
  <Point>
    <coordinates>-70.6000,-16.8000</coordinates>
  </Point>
</Placemark>
<Placemark>
  <name>Nodo Tacna 1</name>
  <Point>
    <coordinates>-70.2516,-18.0127</coordinates>
  </Point>
</Placemark>

<Placemark>
  <name>Nodo Tacna 2</name>
  <Point>
    <coordinates>-70.1000,-17.7500</coordinates>
  </Point>
</Placemark>
<Placemark>
  <name>Nodo Madre de Dios 1</name>
  <Point>
    <coordinates>-69.2300,-12.5900</coordinates>
  </Point>
</Placemark>

<Placemark>
  <name>Nodo Madre de Dios 2</name>
  <Point>
    <coordinates>-69.5000,-13.0000</coordinates>
  </Point>
</Placemark>



<Placemark>
  <name>Nodo Madre de Dios 3</name>
  <Point>
    <coordinates>-69.8000,-11.5000</coordinates>
  </Point>
</Placemark>
<Placemark>
  <name>Nodo Ucayali 1</name>
  <Point>
    <coordinates>-74.5539,-8.3791</coordinates>
  </Point>
</Placemark>

<Placemark>
  <name>Nodo Ucayali 2</name>
  <Point>
    <coordinates>-73.7667,-10.7333</coordinates>
  </Point>
</Placemark>

<Placemark>
  <name>Nodo Ucayali 3</name>
  <Point>
    <coordinates>-75.5078,-9.0325</coordinates>
  </Point>
</Placemark>


<Placemark>
  <name>Nodo Ucayali 4</name>
  <Point>
    <coordinates>-75.0167,-7.3500</coordinates>
  </Point>
</Placemark>

<Placemark>
  <name>Nodo Ucayali 5</name>
  <Point>
    <coordinates>-75.5000,-9.0500</coordinates>
  </Point>
</Placemark>
<Placemark>
  <name>Nodo Huánuco 1</name>
  <Point>
    <coordinates>-76.2422,-9.9306</coordinates>
  </Point>
</Placemark>

<Placemark>
  <name>Nodo Huánuco 2</name>
  <Point>
    <coordinates>-76.0000,-9.5000</coordinates>
  </Point>
</Placemark>

<Placemark>
  <name>Nodo Huánuco 3</name>
  <Point>
    <coordinates>-76.5000,-10.2000</coordinates>
  </Point>
</Placemark>




<Placemark>
  <name>Nodo Huánuco 4</name>
  <Point>
    <coordinates>-75.8000,-9.8000</coordinates>
  </Point>
</Placemark>
<Placemark>
  <name>Nodo San Martín 1</name>
  <Point>
    <coordinates>-76.3667,-6.4833</coordinates>
  </Point>
</Placemark>

<Placemark>
  <name>Nodo San Martín 2</name>
  <Point>
    <coordinates>-76.9667,-6.0500</coordinates>
  </Point>
</Placemark>

<Placemark>
  <name>Nodo San Martín 3</name>
  <Point>
    <coordinates>-76.7667,-7.1667</coordinates>
  </Point>
</Placemark>

<Placemark>
  <name>Nodo San Martín 4</name>
  <Point>
    <coordinates>-76.5200,-8.1800</coordinates>
  </Point>
</Placemark>


<Placemark>
  <name>Nodo La Libertad 1</name>
  <Point>
    <coordinates>-79.0281,-8.1118</coordinates>
  </Point>
</Placemark>

<Placemark>
  <name>Nodo La Libertad 2</name>
  <Point>
    <coordinates>-79.4250,-7.2222</coordinates>
  </Point>
</Placemark>

<Placemark>
  <name>Nodo La Libertad 3</name>
  <Point>
    <coordinates>-78.0667,-7.8000</coordinates>
  </Point>
</Placemark>
<Placemark>
  <name>Nodo Áncash 1</name>
  <Point>
    <coordinates>-77.5278,-9.5278</coordinates>
  </Point>
</Placemark>

<Placemark>
  <name>Nodo Áncash 2</name>
  <Point>
    <coordinates>-78.5783,-9.0853</coordinates>
  </Point>
</Placemark>

<Placemark>
  <name>Nodo Áncash 3</name>
  <Point>
    <coordinates>-77.8000,-9.0500</coordinates>
  </Point>
</Placemark>
<Placemark>
  <name>Nodo Amazonas 1</name>
  <Point>
    <coordinates>-77.8690,-6.2310</coordinates>
  </Point>
</Placemark>

<Placemark>
  <name>Nodo Amazonas 2</name>
  <Point>
    <coordinates>-78.5261,-5.6436</coordinates>
  </Point>
</Placemark>

<Placemark>
  <name>Nodo Amazonas 3</name>
  <Point>
    <coordinates>-78.4500,-5.7500</coordinates>
  </Point>
</Placemark>


<Placemark>
  <name>Nodo Amazonas 4</name>
  <Point>
    <coordinates>-77.8667,-5.6500</coordinates>
  </Point>
</Placemark>

<Placemark>
  <name>Nodo Amazonas 5</name>
  <Point>
    <coordinates>-77.9333,-6.1417</coordinates>
  </Point>
</Placemark>

<Placemark>
  <name>Nodo Cajamarca 1</name>
  <Point>
    <coordinates>-78.5000,-6.7500</coordinates>
  </Point>
</Placemark>

<Placemark>
  <name>Nodo Cajamarca 2</name>
  <Point>
    <coordinates>-78.2500,-6.9000</coordinates>
  </Point>
</Placemark>

<Placemark>
  <name>Nodo Cajamarca 3</name>
  <Point>
    <coordinates>-78.0000,-6.8000</coordinates>
  </Point>
</Placemark>

<Placemark>
  <name>Nodo Cajamarca 4</name>
  <Point>
    <coordinates>-78.7000,-6.7000</coordinates>
  </Point>
</Placemark>
<Placemark>
  <name>Nodo Lambayeque 1</name>
  <Point>
    <coordinates>-79.8442,-6.7767</coordinates>
  </Point>
</Placemark>

<Placemark>
  <name>Nodo Lambayeque 2</name>
  <Point>
    <coordinates>-79.7881,-6.6400</coordinates>
  </Point>
</Placemark>


<Placemark>
  <name>Nodo Piura 1</name>
  <Point>
    <coordinates>-80.6328,-5.1945</coordinates>
  </Point>
</Placemark>

<Placemark>
  <name>Nodo Piura 2</name>
  <Point>
    <coordinates>-80.6853,-4.9039</coordinates>
  </Point>
</Placemark>

<Placemark>
  <name>Nodo Piura 3</name>
  <Point>
    <coordinates>-81.2719,-4.5772</coordinates>
  </Point>
</Placemark>

<Placemark>
  <name>Nodo Tumbes 1</name>
  <Point>
    <coordinates>-80.4515,-3.5669</coordinates>
  </Point>
</Placemark>

<Placemark>
  <name>Nodo Pasco 1 </name>
  <Point>
    <coordinates>-76.2667,-10.6833</coordinates>
  </Point>
</Placemark>
<Placemark>
  <name>Nodo Pasco 2 </name>
  <Point>
    <coordinates>-75.4000,-10.5833</coordinates>
  </Point>
</Placemark>
<Placemark>
  <name>Nodo Pasco 3 </name>
  <Point>
    <coordinates>-75.2736,-10.7376</coordinates>
  </Point>
</Placemark>

  




  
 <Placemark>
  <name>17.21 km</name>
  <LineString>
    <coordinates>
      -76.92003,-12.01971 
      -77.06516,-12.08145
    </coordinates>
  </LineString>
</Placemark>

<Placemark>
  <name>21.32 km</name>
  <LineString>
    <coordinates>
      -76.92003,-12.01971
      -77.11564,-12.00736
    </coordinates>
  </LineString>
</Placemark>

<Placemark>
  <name>9.90 km</name>
  <LineString>
    <coordinates>
      -77.06516,-12.08145
      -77.11564,-12.00736
    </coordinates>
  </LineString>
</Placemark>

<Placemark>
  <name>55.60 km</name>
  <LineString>
    <coordinates>
      -77.11564,-12.00736
      -77.19136,-11.5129
    </coordinates>
  </LineString>
</Placemark>

<Placemark>
  <name>78.73 km</name>
  <LineString>
    <coordinates>
      -77.11564,-12.00736
      -76.61715,-11.49434
    </coordinates>
  </LineString>
</Placemark>

<Placemark>
  <name>62.60 km</name>
  <LineString>
    <coordinates>
      -77.19136,-11.5129
      -76.61715,-11.49434
    </coordinates>
  </LineString>
</Placemark>

<Placemark>
  <name>48.89 km</name>
  <LineString>
    <coordinates>
      -76.61715,-11.49434
      -76.40892,-11.88383
    </coordinates>
  </LineString>
</Placemark>

<Placemark>
  <name>57.62 km</name>
  <LineString>
    <coordinates>
      -76.92003,-12.01971
      -76.40892,-11.88383
    </coordinates>
  </LineString>
</Placemark>

<Placemark>
  <name>84.16 km</name>
  <LineString>
    <coordinates>
      -76.40892,-11.88383
      -75.93283,-12.48074
    </coordinates>
  </LineString>
</Placemark>

<Placemark>
  <name>118.89 km</name>
  <LineString>
    <coordinates>
      -76.92003,-12.01971
      -75.93283,-12.48074
    </coordinates>
  </LineString>
</Placemark>

<Placemark>
  <name>86.88 km</name>
  <LineString>
    <coordinates>
      -75.93283,-12.48074
      -76.37242,-13.13394
    </coordinates>
  </LineString>
</Placemark>

<Placemark>
  <name>139.09 km</name>
  <LineString>
    <coordinates>
      -77.06516,-12.08145
      -76.37242,-13.13394
    </coordinates>
  </LineString>
</Placemark>

<Placemark>
  <name>108.65 km</name>
  <LineString>
    <coordinates>
      -75.93283,-12.48074
      -76.12895,-13.43898
    </coordinates>
  </LineString>
</Placemark>

<Placemark>
  <name>42.95 km</name>
  <LineString>
    <coordinates>
      -76.37242,-13.13394
      -76.12895,-13.43898
    </coordinates>
  </LineString>
</Placemark>

<Placemark>
  <name>59.78 km</name>
  <LineString>
    <coordinates>
      -77.19136,-11.5129
      -77.58226,-11.13596
    </coordinates>
  </LineString>
</Placemark>

<Placemark>
  <name>102.71 km</name>
  <LineString>
    <coordinates>
      -77.19136,-11.5129
      -76.77408,-10.68494
    </coordinates>
  </LineString>
</Placemark>

<Placemark>
  <name>91.62 km</name>
  <LineString>
    <coordinates>
      -76.61715,-11.49434
      -76.77408,-10.68494
    </coordinates>
  </LineString>
</Placemark>

<Placemark>
  <name>96.23 km</name>
  <LineString>
    <coordinates>
      -77.58226,-11.13596
      -76.99884,-10.48741
    </coordinates>
  </LineString>
</Placemark>

<Placemark>
  <name>43.45 km</name>
  <LineString>
    <coordinates>
      -77.58226,-11.13596
      -77.75441,-10.78366
    </coordinates>
  </LineString>
</Placemark>

<Placemark>
  <name>32.95 km</name>
  <LineString>
    <coordinates>
      -76.99884,-10.48741
      -76.77408,-10.68494
    </coordinates>
  </LineString>
</Placemark>

<Placemark>
  <name>86.88 km</name>
  <LineString>
    <coordinates>
      -77.76397,-10.69905
      -76.99884,-10.48741
    </coordinates>
  </LineString>
</Placemark>

<Placemark>
  <name>30.74 km</name>
  <LineString>
    <coordinates>
      -76.77408,-10.68494
      -76.9845,-10.50152
    </coordinates>
  </LineString>
</Placemark>

<Placemark>
  <name>89.80 km</name>
  <LineString>
    <coordinates>
      -76.9845,-10.50152
      -77.75441,-10.78366
    </coordinates>
  </LineString>
</Placemark>

<Placemark>
  <name>9.47 km</name>
  <LineString>
    <coordinates>
      -77.75441,-10.78366
      -77.76397,-10.69905
    </coordinates>
  </LineString>
</Placemark>

    
    <Placemark>
      <name>36.33 km</name>
      <LineString>
        <coordinates>
          -76.12895,-13.43898
          -75.96664,-13.72509
        </coordinates>
      </LineString>
    </Placemark>

    <Placemark>
      <name>33.10 km</name>
      <LineString>
        <coordinates>
          -76.12895,-13.43898
          -76.21349,-13.72509
        </coordinates>
      </LineString>
    </Placemark>


    <Placemark>
      <name>26.66 km</name>
      <LineString>
        <coordinates>
          -75.96664,-13.72509
          -76.21349,-13.72509
        </coordinates>
      </LineString>
    </Placemark>

    <Placemark>
      <name>37.79 km</name>
      <LineString>
        <coordinates>
          -75.96664,-13.72509
          -75.73671,-13.9813
        </coordinates>
      </LineString>
    </Placemark>

    <Placemark>
      <name>168.20 km</name>
      <LineString>
        <coordinates>
          -75.93283,-12.48074
          -75.73671,-13.9813
        </coordinates>
      </LineString>
    </Placemark>

    <Placemark>
      <name>58.83 km</name>
      <LineString>
        <coordinates>
          -76.21349,-13.72509
          -75.73671,-13.9813
        </coordinates>
      </LineString>
    </Placemark>

    <Placemark>
      <name>9.91 km</name>
      <LineString>
        <coordinates>
          -75.73671,-13.9813
          -75.72656,-14.06992
        </coordinates>
      </LineString>
    </Placemark>

    <Placemark>
      <name>86.39 km</name>
      <LineString>
        <coordinates>
          -75.73671,-13.9813
          -75.18891,-14.54854
        </coordinates>
      </LineString>
    </Placemark>

    <Placemark>
      <name>78.66 km</name>
      <LineString>
        <coordinates>
          -75.72656,-14.06992
          -75.18891,-14.54854
        </coordinates>
      </LineString>
    </Placemark>

    <Placemark>
      <name>239.89 km</name>
      <LineString>
        <coordinates>
          -75.18891,-14.54854
          -73.36691,-15.7984
        </coordinates>
      </LineString>
    </Placemark>

    
    <Placemark>
      <name>76.73 km</name>
      <LineString>
        <coordinates>
          -73.36691,-15.7984
          -72.65159,-15.84868
        </coordinates>
      </LineString>
    </Placemark>

    <Placemark>
      <name>99.72 km</name>
      <LineString>
        <coordinates>
          -73.36691,-15.7984
          -72.48674,-16.09502
        </coordinates>
      </LineString>
    </Placemark>
    
    <Placemark>
      <name>116.56 km</name>
      <LineString>
        <coordinates>
          -73.36691,-15.7984
          -72.70458,-16.63171
        </coordinates>
      </LineString>
    </Placemark>

    <Placemark>
      <name>32.57 km</name>
      <LineString>
        <coordinates>
          -72.65159,-15.84868
          -72.48674,-16.09502
        </coordinates>
      </LineString>
    </Placemark>

    <Placemark>
      <name>87.25 km</name>
      <LineString>
        <coordinates>
          -72.65159,-15.84868
          -72.70458,-16.63171
        </coordinates>
      </LineString>
    </Placemark>

  
    <Placemark>
      <name>64.04 km</name>
      <LineString>
        <coordinates>
          -72.48674,-16.09502
          -72.70458,-16.63171
        </coordinates>
      </LineString>
    </Placemark>

<Placemark>
  <name>16.29 km</name>
  <LineString>
    <coordinates>
      -75.93283,-12.48074 
      -75.92272,-12.33456
    </coordinates>
  </LineString>
</Placemark>

<Placemark>
  <name>72.84 km</name>
  <LineString>
    <coordinates>
      -76.40892,-11.88383 
      -75.92272,-12.33456
    </coordinates>
  </LineString>
</Placemark>

<Placemark>
  <name>105.82 km</name>
  <LineString>
    <coordinates>
      -75.93283,-12.48074 
      -75.0056,-12.77576
    </coordinates>
  </LineString>
</Placemark>

<Placemark>
  <name>3.71 km</name>
  <LineString>
    <coordinates>
      -75.0056,-12.77576 
      -74.9745,-12.78976
    </coordinates>
  </LineString>
</Placemark>

<Placemark>
  <name>36.84 km</name>
  <LineString>
    <coordinates>
      -74.9745,-12.78976 
      -74.72419,-13.01383
    </coordinates>
  </LineString>
</Placemark>

<Placemark>
  <name>23.17 km</name>
  <LineString>
    <coordinates>
      -75.0056,-12.77576 
      -74.95297,-12.57384
    </coordinates>
  </LineString>
</Placemark>

<Placemark>
  <name>0.78 km</name>
  <LineString>
    <coordinates>
      -74.95297,-12.57384 
      -74.94664,-12.57053
    </coordinates>
  </LineString>
</Placemark>

<Placemark>
  <name>12.49 km</name>
  <LineString>
    <coordinates>
      -74.94664,-12.57053 
      -74.86292,-12.49345
    </coordinates>
  </LineString>
</Placemark>

<Placemark>
  <name>9.35 km</name>
  <LineString>
    <coordinates>
      -74.86292,-12.49345 
      -74.86292,-12.40935
    </coordinates>
  </LineString>
</Placemark>

<Placemark>
  <name>26.84 km</name>
  <LineString>
    <coordinates>
      -75.08299,-12.2995 
      -74.86292,-12.40935
    </coordinates>
  </LineString>
</Placemark>

<Placemark>
  <name>32.19 km</name>
  <LineString>
    <coordinates>
      -75.08299,-12.2995 
      -74.86292,-12.49345
    </coordinates>
  </LineString>
</Placemark>

<Placemark>
  <name>24.96 km</name>
  <LineString>
    <coordinates>
      -75.08299,-12.2995 
      -74.86053,-12.3556
    </coordinates>
  </LineString>
</Placemark>

<Placemark>
  <name>5.98 km</name>
  <LineString>
    <coordinates>
      -74.86292,-12.40935 
      -74.86053,-12.3556
    </coordinates>
  </LineString>
</Placemark>

<Placemark>
  <name>8.71 km</name>
  <LineString>
    <coordinates>
      -74.86292,-12.40935 
      -74.79116,-12.3743
    </coordinates>
  </LineString>
</Placemark>

<Placemark>
  <name>7.82 km</name>
  <LineString>
    <coordinates>
      -74.86053,-12.3556 
      -74.79116,-12.3743
    </coordinates>
  </LineString>
</Placemark>

<Placemark>
  <name>17.33 km</name>
  <LineString>
    <coordinates>
      -74.79116,-12.3743 
      -74.64525,-12.43739
    </coordinates>
  </LineString>
</Placemark>

<Placemark>
  <name>24.44 km</name>
  <LineString>
    <coordinates>
      -74.86292,-12.49345 
      -74.64525,-12.43739
    </coordinates>
  </LineString>
</Placemark>

<Placemark>
  <name>26.96 km</name>
  <LineString>
    <coordinates>
      -74.64525,-12.43739 
      -74.4782,-12.61676
    </coordinates>
  </LineString>
</Placemark>

<Placemark>
  <name>43.95 km</name>
  <LineString>
    <coordinates>
      -74.86292,-12.49345 
      -74.4782,-12.61676
    </coordinates>
  </LineString>
</Placemark>

<Placemark>
  <name>60.82 km</name>
  <LineString>
    <coordinates>
      -74.95297,-12.57384 
      -74.41135,-12.71468
    </coordinates>
  </LineString>
</Placemark>

<Placemark>
  <name>13.08 km</name>
  <LineString>
    <coordinates>
      -74.4782,-12.61676 
      -74.41135,-12.71468
    </coordinates>
  </LineString>
</Placemark>

<Placemark>
  <name>2.91 km</name>
  <LineString>
    <coordinates>
      -74.41135,-12.71468 
      -74.39202,-12.73283
    </coordinates>
  </LineString>
</Placemark>

<Placemark>
  <name>7.39 km</name>
  <LineString>
    <coordinates>
      -74.39202,-12.73283 
      -74.35781,-12.79031
    </coordinates>
  </LineString>
</Placemark>


<Placemark>
  <name>23.14 km</name>
  <LineString>
    <coordinates>
      -74.56632,-12.85293
      -74.39202,-12.73283
    </coordinates>
  </LineString>
</Placemark>

<Placemark>
  <name>24.76 km</name>
  <LineString>
    <coordinates>
      -74.72419,-13.01383 
      -74.56632,-12.85293
    </coordinates>
  </LineString>
</Placemark>




<Placemark>
  <name>20.70 km</name>
  <LineString>
    <coordinates>
      -74.35781,-12.79031 
      -74.24892,-12.94322
    </coordinates>
  </LineString>
</Placemark>

<Placemark>
  <name>35.84 km</name>
  <LineString>
    <coordinates>
      -74.56632,-12.85293
      -74.24892,-12.94322
    </coordinates>
  </LineString>
</Placemark>

<Placemark>
  <name>57.16 km</name>
  <LineString>
    <coordinates>
      -74.72419,-13.01383 
      -74.22438,-13.17893
    </coordinates>
  </LineString>
</Placemark>

<Placemark>
  <name>13.74 km</name>
  <LineString>
    <coordinates>
      -74.24892,-12.94322 
      -74.21657,-13.06273
    </coordinates>
  </LineString>
</Placemark>

<Placemark>
  <name>12.95 km</name>
  <LineString>
    <coordinates>
      -74.21657,-13.06273 
      -74.22438,-13.17893
    </coordinates>
  </LineString>
</Placemark>

<Placemark>
  <name>30.35 km</name>
  <LineString>
    <coordinates>
      -74.24892,-12.94322 
      -73.97898,-13.01602
    </coordinates>
  </LineString>
</Placemark>

<Placemark>
  <name>21.67 km</name>
  <LineString>
    <coordinates>
      -74.21657,-13.06273 
      -74.11952,-13.23321
    </coordinates>
  </LineString>
</Placemark>

<Placemark>
  <name>12.86 km</name>
  <LineString>
    <coordinates>
      -74.22438,-13.17893 
      -74.11952,-13.23321
    </coordinates>
  </LineString>
</Placemark>

<Placemark>
  <name>28.55 km</name>
  <LineString>
    <coordinates>
      -74.11952,-13.23321 
      -73.97898,-13.01602
    </coordinates>
  </LineString>
</Placemark>

<Placemark>
  <name>32.16 km</name>
  <LineString>
    <coordinates>
      -74.22438,-13.17893 
      -73.97898,-13.01602
    </coordinates>
  </LineString>
</Placemark>

<Placemark>
  <name>26.26 km</name>
  <LineString>
    <coordinates>
      -74.21657,-13.06273 
      -73.97898,-13.01602
    </coordinates>
  </LineString>
</Placemark>

<Placemark>
  <name>48.12 km</name>
  <LineString>
    <coordinates>
      -74.35781,-12.79031 
      -73.97898,-13.01602
    </coordinates>
  </LineString>
</Placemark>

<Placemark>
  <name>51.08 km</name>
  <LineString>
    <coordinates>
      -74.22438,-13.17893 
      -74.14521,-13.63184
    </coordinates>
  </LineString>
</Placemark>


<Placemark>
  <name>16.41 km</name>
  <LineString>
    <coordinates>
      -74.14521,-13.63184 
      -74.0655,-13.75748
    </coordinates>
  </LineString>
</Placemark>

<Placemark>
  <name>21.37 km</name>
  <LineString>
    <coordinates>
      -74.14521,-13.63184 
      -73.9496,-13.66019
    </coordinates>
  </LineString>
</Placemark>

<Placemark>
  <name>16.55 km</name>
  <LineString>
    <coordinates>
      -74.0655,-13.75748 
      -73.9496,-13.66019
    </coordinates>
  </LineString>
</Placemark>


<Placemark>
  <name>144.57 km</name>
  <LineString>
    <coordinates>
      -80.4515,-3.5669 
      -81.2719,-4.5772
    </coordinates>
  </LineString>
</Placemark>

<Placemark>
  <name>150.91 km</name>
  <LineString>
    <coordinates>
      -80.4515,-3.5669 
      -80.6853,-4.9039
    </coordinates>
  </LineString>
</Placemark>

<Placemark>
  <name>74.47 km</name>
  <LineString>
    <coordinates>
      -80.6853,-4.9039 
      -81.2719,-4.5772
    </coordinates>
  </LineString>
</Placemark>

<Placemark>
  <name>32.83 km</name>
  <LineString>
    <coordinates>
      -80.6853,-4.9039 
      -80.6328,-5.1945
    </coordinates>
  </LineString>
</Placemark>

<Placemark>
  <name>238.49 km</name>
  <LineString>
    <coordinates>
      -80.6328,-5.1945 
      -78.5261,-5.6436
    </coordinates>
  </LineString>
</Placemark>

<Placemark>
  <name>185.91 km</name>
  <LineString>
    <coordinates>
      -80.6328,-5.1945 
      -79.7881,-6.6400
    </coordinates>
  </LineString>
</Placemark>

<Placemark>
  <name>16.41 km</name>
  <LineString>
    <coordinates>
      -79.8442,-6.7767 
      -79.7881,-6.6400
    </coordinates>
  </LineString>
</Placemark>

<Placemark>
  <name>67.78 km</name>
  <LineString>
    <coordinates>
      -79.8442,-6.7767 
      -79.4250,-7.2222
    </coordinates>
  </LineString>
</Placemark>

<Placemark>
  <name>98.87 km</name>
  <LineString>
    <coordinates>
      -79.4250,-7.2222 
      -78.7000,-6.7000
    </coordinates>
  </LineString>
</Placemark>

<Placemark>
  <name>111.44 km</name>
  <LineString>
    <coordinates>
      -78.0667,-7.8000 
      -78.0000,-6.8000
    </coordinates>
  </LineString>
</Placemark>

<Placemark>
  <name>108.16 km</name>
  <LineString>
    <coordinates>
      -79.4250,-7.2222 
      -79.0281,-8.1118
    </coordinates>
  </LineString>
</Placemark>

<Placemark>
  <name>162.94 km</name>
  <LineString>
    <coordinates>
      -79.4250,-7.2222 
      -78.0667,-7.8000
    </coordinates>
  </LineString>
</Placemark>

<Placemark>
  <name>111.41 km</name>
  <LineString>
    <coordinates>
      -79.0281,-8.1118 
      -78.0667,-7.8000
    </coordinates>
  </LineString>
</Placemark>

<Placemark>
  <name>14.52 km</name>
  <LineString>
    <coordinates>
      -78.5261,-5.6436 
      -78.4500,-5.7500
    </coordinates>
  </LineString>
</Placemark>

<Placemark>
  <name>72.97 km</name>
  <LineString>
    <coordinates>
      -78.5261,-5.6436 
      -77.8667,-5.6500
    </coordinates>
  </LineString>
</Placemark>

<Placemark>
  <name>65.49 km</name>
  <LineString>
    <coordinates>
      -78.4500,-5.7500 
      -77.8667,-5.6500
    </coordinates>
  </LineString>
</Placemark>

<Placemark>
  <name>71.85 km</name>
  <LineString>
    <coordinates>
      -78.4500,-5.7500 
      -77.9333,-6.1417
    </coordinates>
  </LineString>
</Placemark>

<Placemark>
  <name>55.17 km</name>
  <LineString>
    <coordinates>
      -77.8667,-5.6500 
      -77.9333,-6.1417
    </coordinates>
  </LineString>
</Placemark>

<Placemark>
  <name>12.21 km</name>
  <LineString>
    <coordinates>
      -77.9333,-6.1417 
      -77.8690,-6.2310
    </coordinates>
  </LineString>
</Placemark>

<Placemark>
  <name>64.90 km</name>
  <LineString>
    <coordinates>
      -77.8690,-6.2310 
      -78.0000,-6.8000
    </coordinates>
  </LineString>
</Placemark>

<Placemark>
  <name>29.76 km</name>
  <LineString>
    <coordinates>
      -78.0000,-6.8000 
      -78.2500,-6.9000
    </coordinates>
  </LineString>
</Placemark>

<Placemark>
  <name>32.25 km</name>
  <LineString>
    <coordinates>
      -78.2500,-6.9000 
      -78.5000,-6.7500
    </coordinates>
  </LineString>
</Placemark>

<Placemark>
  <name>22.78 km</name>
  <LineString>
    <coordinates>
      -78.5000,-6.7500 
      -78.7000,-6.7000
    </coordinates>
  </LineString>
</Placemark>

<Placemark>
  <name>105.59 km</name>
  <LineString>
    <coordinates>
      -77.8690,-6.2310 
      -78.7000,-6.7000
    </coordinates>
  </LineString>
</Placemark>

<Placemark>
  <name>109.04 km</name>
  <LineString>
    <coordinates>
      -77.8667,-5.6500 
      -76.9667,-6.0500
    </coordinates>
  </LineString>
</Placemark>

<Placemark>
  <name>157.50 km</name>
  <LineString>
    <coordinates>
      -76.5200,-8.1800 
      -76.0000,-9.5000
    </coordinates>
  </LineString>
</Placemark>

<Placemark>
  <name>74.26 km</name>
  <LineString>
    <coordinates>
      -75.5000,-9.0500 
      -76.0000,-9.5000
    </coordinates>
  </LineString>
</Placemark>

<Placemark>
  <name>148.10 km</name>
  <LineString>
    <coordinates>
      -76.5200,-8.1800 
      -75.5000,-9.0500
    </coordinates>
  </LineString>
</Placemark>

<Placemark>
  <name>2.13 km</name>
  <LineString>
    <coordinates>
      -75.5078,-9.0325 
      -75.5000,-9.0500
    </coordinates>
  </LineString>
</Placemark>


<Placemark>
  <name>127.56 km</name>
  <LineString>
    <coordinates>
      -75.5078,-9.0325 
      -74.5539,-8.3791
    </coordinates>
  </LineString>
</Placemark>

<Placemark>
  <name>125.27 km</name>
  <LineString>
    <coordinates>
      -75.0167,-7.3500 
      -74.5539,-8.3791
    </coordinates>
  </LineString>
</Placemark>

<Placemark>
  <name>275.64 km</name>
  <LineString>
    <coordinates>
      -74.5539,-8.3791 
      -73.7667,-10.7333
    </coordinates>
  </LineString>
</Placemark>

<Placemark>
  <name>194.84 km</name>
  <LineString>
    <coordinates>
      -73.7667,-10.7333 
      -75.1000,-11.9000
    </coordinates>
  </LineString>
</Placemark>

<Placemark>
  <name>21.62 km</name>
  <LineString>
    <coordinates>
      -75.1000,-11.9000 
      -75.2049,-12.0651
    </coordinates>
  </LineString>
</Placemark>

<Placemark>
  <name>39.82 km</name>
  <LineString>
    <coordinates>
      -75.1000,-11.9000 
      -75.3000,-12.2000
    </coordinates>
  </LineString>
</Placemark>

<Placemark>
  <name>83.57 km</name>
  <LineString>
    <coordinates>
      -75.92272,-12.33456 
      -75.2049,-12.0651
    </coordinates>
  </LineString>
</Placemark>

<Placemark>
  <name>26.05 km</name>
  <LineString>
    <coordinates>
      -75.3000,-12.2000 
      -75.08299,-12.2995
    </coordinates>
  </LineString>
</Placemark>

<Placemark>
  <name>29.24 km</name>
  <LineString>
    <coordinates>
      -75.2049,-12.0651 
      -75.08299,-12.2995
    </coordinates>
  </LineString>
</Placemark>

<Placemark>
  <name>44.46 km</name>
  <LineString>
    <coordinates>
      -75.1000,-11.9000 
      -75.08299,-12.2995
    </coordinates>
  </LineString>
</Placemark>

<Placemark>
  <name>55.44 km</name>
  <LineString>
    <coordinates>
      -76.77408,-10.68494 
      -76.2667,-10.6833
    </coordinates>
  </LineString>
</Placemark>

<Placemark>
  <name>95.37 km</name>
  <LineString>
    <coordinates>
      -76.2667,-10.6833
      -75.4000,-10.5833
    </coordinates>
  </LineString>
</Placemark>


<Placemark>
  <name>22.03 km</name>
  <LineString>
    <coordinates>
      -75.2736,-10.7376
      -75.4000,-10.5833
    </coordinates>
  </LineString>
</Placemark>


<Placemark>
  <name>108.67 km</name>
  <LineString>
    <coordinates>
      -76.2667,-10.6833
      -75.2736,-10.7376
    </coordinates>
  </LineString>
</Placemark>

<Placemark>
  <name>164.63 km</name>
  <LineString>
    <coordinates>
      -75.2736,-10.7376
      -73.7667,-10.7333
    </coordinates>
  </LineString>
</Placemark>

<Placemark>
  <name>130.63 km</name>
  <LineString>
    <coordinates>
      -75.2736,-10.7376
      -75.1000,-11.9000
    </coordinates>
  </LineString>
</Placemark>


<Placemark>
  <name>60.70 km</name>
  <LineString>
    <coordinates>
      -73.9496,-13.66019 
      -73.3878,-13.6556
    </coordinates>
  </LineString>
</Placemark>

<Placemark>
  <name>72.34 km</name>
  <LineString>
    <coordinates>
      -73.3878,-13.6556 
      -73.1664,-14.2697
    </coordinates>
  </LineString>
</Placemark>

<Placemark>
  <name>54.86 km</name>
  <LineString>
    <coordinates>
      -73.3878,-13.6556 
      -72.8806,-13.6339
    </coordinates>
  </LineString>
</Placemark>


<Placemark>
  <name>77.13 km</name>
  <LineString>
    <coordinates>
      -73.1664,-14.2697 
      -72.8806,-13.6339
    </coordinates>
  </LineString>
</Placemark>

<Placemark>
  <name>68.15 km</name>
  <LineString>
    <coordinates>
      -73.1664,-14.2697 
      -72.5383,-14.3422
    </coordinates>
  </LineString>
</Placemark>

<Placemark>
  <name>86.99 km</name>
  <LineString>
    <coordinates>
      -72.8806,-13.6339 
      -72.5383,-14.3422
    </coordinates>
  </LineString>
</Placemark>

<Placemark>
  <name>61.32 km</name>
  <LineString>
    <coordinates>
      -72.8806,-13.6339 
      -72.3133,-13.6236
    </coordinates>
  </LineString>
</Placemark>

<Placemark>
  <name>12.52 km</name>
  <LineString>
    <coordinates>
      -72.3133,-13.6236 
      -72.2000,-13.6000
    </coordinates>
  </LineString>
</Placemark>

<Placemark>
  <name>30.26 km</name>
  <LineString>
    <coordinates>
      -72.3133,-13.6236 
      -72.1000,-13.8000
    </coordinates>
  </LineString>
</Placemark>

<Placemark>
  <name>34.01 km</name>
  <LineString>
    <coordinates>
      -72.1000,-13.8000 
      -71.96734,-13.52264
    </coordinates>
  </LineString>
</Placemark>

<Placemark>
  <name>26.58 km</name>
  <LineString>
    <coordinates>
      -72.2000,-13.6000 
      -71.96734,-13.52264
    </coordinates>
  </LineString>
</Placemark>

<Placemark>
  <name>34.01 km</name>
  <LineString>
    <coordinates>
      -72.1000,-13.8000 
      -71.96734,-13.52264
    </coordinates>
  </LineString>
</Placemark>

<Placemark>
  <name>39.80 km</name>
  <LineString>
    <coordinates>
      -71.96734,-13.52264 
      -71.6000,-13.5000
    </coordinates>
  </LineString>
</Placemark>

<Placemark>
  <name>40.18 km</name>
  <LineString>
    <coordinates>
      -71.96734,-13.52264 
      -71.8000,-13.2000
    </coordinates>
  </LineString>
</Placemark>

<Placemark>
  <name>39.76 km</name>
  <LineString>
    <coordinates>
      -71.8000,-13.2000 
      -71.6000,-13.5000
    </coordinates>
  </LineString>
</Placemark>

<Placemark>
  <name>184.75 km</name>
  <LineString>
    <coordinates>
      -72.5383,-14.3422 
      -73.36691,-15.7984
    </coordinates>
  </LineString>
</Placemark>

<Placemark>
  <name>171.34 km</name>
  <LineString>
    <coordinates>
      -73.1664,-14.2697 
      -73.36691,-15.7984
    </coordinates>
  </LineString>
</Placemark>

<Placemark>
  <name>198.30 km</name>
  <LineString>
    <coordinates>
      -72.70458,-16.63171 
      -70.9357,-17.1941
    </coordinates>
  </LineString>
</Placemark>

<Placemark>
  <name>205.52 km</name>
  <LineString>
    <coordinates>
      -72.48674,-16.09502 
      -70.9357,-17.1941
    </coordinates>
  </LineString>
</Placemark>

<Placemark>
  <name>56.52 km</name>
  <LineString>
    <coordinates>
      -70.9357,-17.1941 
      -70.6000,-16.8000
    </coordinates>
  </LineString>
</Placemark>

<Placemark>
  <name>79.18 km</name>
  <LineString>
    <coordinates>
      -70.6000,-16.8000 
      -70.2000,-16.2000
    </coordinates>
  </LineString>
</Placemark>

<Placemark>
  <name>105.07 km</name>
  <LineString>
    <coordinates>
      -70.6000,-16.8000 
      -70.3000,-15.9000
    </coordinates>
  </LineString>
</Placemark>

<Placemark>
  <name>44.31 km</name>
  <LineString>
    <coordinates>
      -70.2000,-16.2000 
      -70.0219,-15.8402
    </coordinates>
  </LineString>
</Placemark>

<Placemark>
  <name>40.02 km</name>
  <LineString>
    <coordinates>
      -70.0219,-15.8402 
      -69.9000,-15.5000
    </coordinates>
  </LineString>
</Placemark>

<Placemark>
  <name>35.03 km</name>
  <LineString>
    <coordinates>
      -69.9000,-15.5000 
      -69.8000,-15.8000
    </coordinates>
  </LineString>
</Placemark>

<Placemark>
  <name>116.37 km</name>
  <LineString>
    <coordinates>
      -70.9357,-17.1941 
      -70.2516,-18.0127
    </coordinates>
  </LineString>
</Placemark>

<Placemark>
  <name>33.33 km</name>
  <LineString>
    <coordinates>
      -70.2516,-18.0127 
      -70.1000,-17.7500
    </coordinates>
  </LineString>
</Placemark>

<Placemark>
  <name>118.23 km</name>
  <LineString>
    <coordinates>
      -70.6000,-16.8000 
      -70.1000,-17.7500
    </coordinates>
  </LineString>
</Placemark>

<Placemark>
  <name>233.99 km</name>
  <LineString>
    <coordinates>
      -71.6000,-13.5000 
      -69.5000,-13.0000
    </coordinates>
  </LineString>
</Placemark>

<Placemark>
  <name>281.31 km</name>
  <LineString>
    <coordinates>
      -69.9000,-15.5000 
      -69.5000,-13.0000
    </coordinates>
  </LineString>
</Placemark>

<Placemark>
  <name>54.18 km</name>
  <LineString>
    <coordinates>
      -69.5000,-13.0000 
      -69.2300,-12.5900
    </coordinates>
  </LineString>
</Placemark>

<Placemark>
  <name>136.13 km</name>
  <LineString>
    <coordinates>
      -69.2300,-12.5900 
      -69.8000,-11.5000
    </coordinates>
  </LineString>
</Placemark>


<Placemark>
  <name>119.01 km</name>
  <LineString>
    <coordinates>
      -79.0281,-8.1118 
      -78.5783,-9.0853
    </coordinates>
  </LineString>
</Placemark>

<Placemark>
  <name>85.55 km</name>
  <LineString>
    <coordinates>
      -78.5783,-9.0853 
      -77.8000,-9.0500
    </coordinates>
  </LineString>
</Placemark>

<Placemark>
  <name>142.06 km</name>
  <LineString>
    <coordinates>
      -78.0667,-7.8000 
      -77.8000,-9.0500
    </coordinates>
  </LineString>
</Placemark>

<Placemark>
  <name>60.95 km</name>
  <LineString>
    <coordinates>
      -77.8000,-9.0500 
      -77.5278,-9.5278
    </coordinates>
  </LineString>
</Placemark>

<Placemark>
  <name>125.33 km</name>
  <LineString>
    <coordinates>
      -78.5783,-9.0853 
      -77.5278,-9.5278
    </coordinates>
  </LineString>
</Placemark>

<Placemark>
  <name>132.78 km</name>
  <LineString>
    <coordinates>
      -77.5278,-9.5278 
      -77.76397,-10.69905
    </coordinates>
  </LineString>
</Placemark>

<Placemark>
  <name>121.41 km</name>
  <LineString>
    <coordinates>
      -77.5278,-9.5278 
      -76.99884,-10.48741
    </coordinates>
  </LineString>
</Placemark>

<Placemark>
  <name>63.24 km</name>
  <LineString>
    <coordinates>
      -76.5000,-10.2000 
      -76.99884,-10.48741
    </coordinates>
  </LineString>
</Placemark>

<Placemark>
  <name>41.16 km</name>
  <LineString>
    <coordinates>
      -76.5000,-10.2000 
      -76.2422,-9.9306
    </coordinates>
  </LineString>
</Placemark>

<Placemark>
  <name>50.57 km</name>
  <LineString>
    <coordinates>
      -76.2422,-9.9306
      -75.8000,-9.8000
    </coordinates>
  </LineString>
</Placemark>

<Placemark>
  <name>54.75 km</name>
  <LineString>
    <coordinates>
      -76.2422,-9.9306
      -76.0000,-9.5000
    </coordinates>
  </LineString>
</Placemark>

<Placemark>
  <name>39.92 km</name>
  <LineString>
    <coordinates>
      -75.8000,-9.8000 
      -76.0000,-9.5000
    </coordinates>
  </LineString>
</Placemark>

<Placemark>
  <name>81.97 km</name>
  <LineString>
    <coordinates>
      -76.9667,-6.0500 
      -76.3667,-6.4833
    </coordinates>
  </LineString>
</Placemark>

<Placemark>
  <name>126.12 km</name>
  <LineString>
    <coordinates>
      -76.7667,-7.1667 
      -76.9667,-6.0500
    </coordinates>
  </LineString>
</Placemark>

<Placemark>
  <name>115.91 km</name>
  <LineString>
    <coordinates>
      -76.7667,-7.1667 
      -76.5200,-8.1800
    </coordinates>
  </LineString>
</Placemark>


<Placemark>
  <name>35.03 km</name>
  <LineString>
    <coordinates>
      -70.2000,-16.2000 
      -70.3000,-15.9000
    </coordinates>
  </LineString>
</Placemark>
<Placemark>
  <name>30.48 km</name>
  <LineString>
    <coordinates>
      -70.3000,-15.9000 
      -70.0219,-15.8402
    </coordinates>
  </LineString>
</Placemark>

  </Document>
</kml>
